COMMENT,ORIGINATOR,NORAD_CAT_ID,OBJECT_NAME,OBJECT_TYPE,CLASSIFICATION_TYPE,INTLDES,EPOCH,EPOCH_MICROSECONDS,MEAN_MOTION,ECCENTRICITY,INCLINATION,RA_OF_ASC_NODE,ARG_OF_PERICENTER,MEAN_ANOMALY,EPHEMERIS_TYPE,ELEMENT_SET_NO,REV_AT_EPOCH,BSTAR,MEAN_MOTION_DOT,MEAN_MOTION_DDOT,FILE,TLE_LINE0,TLE_LINE1,TLE_LINE2,OBJECT_ID,OBJECT_NUMBER,SEMIMAJOR_AXIS,PERIOD,APOGEE,PERIGEE,DECAYED
"GENERATED VIA SPACETRACK.ORG API","18 SPCS","48893","SPACEBEE-106","PAYLOAD","U","21059Q","2022-06-14 20:40:40","716768","15.15757646","0.0010442","97.5569","295.6181","115.988","244.2429","0","999","5354","0.00052562","0.00009978","0","3496199","0 SPACEBEE-106","1 48893U 21059Q   22165.86158237  .00009978  00000-0  52562-3 0  9991","2 48893  97.5569 295.6181 0010442 115.9880 244.2429 15.15757646 53541","2021-059Q","48893","6896.816","95.002","525.883","511.480","0"
"GENERATED VIA SPACETRACK.ORG API","18 SPCS","48893","SPACEBEE-106","PAYLOAD","U","21059Q","2022-06-15 03:00:55","669248","15.1576055","0.0010442","97.5571","295.8809","115.1823","245.0494","0","999","5358","0.00047598","0.00009029","0","3496296","0 SPACEBEE-106","1 48893U 21059Q   22166.12564432  .00009029  00000-0  47598-3 0  9999","2 48893  97.5571 295.8809 0010442 115.1823 245.0494 15.15760550 53585","2021-059Q","48893","6896.808","95.002","525.874","511.471","0"
"GENERATED VIA SPACETRACK.ORG API","18 SPCS","48893","SPACEBEE-106","PAYLOAD","U","21059Q","2022-06-15 07:46:06","838464","15.15764492","0.0010425","97.5572","296.078","114.5888","245.6431","0","999","5361","0.00048829","0.00009265","0","3496794","0 SPACEBEE-106","1 48893U 21059Q   22166.32369026  .00009265  00000-0  48829-3 0  9993","2 48893  97.5572 296.0780 0010425 114.5888 245.6431 15.15764492 53612","2021-059Q","48893","6896.796","95.002","525.851","511.471","0"
"GENERATED VIA SPACETRACK.ORG API","18 SPCS","48893","SPACEBEE-106","PAYLOAD","U","21059Q","2022-06-15 22:01:39","999648","15.15781001","0.0010397","97.5574","296.6692","112.9354","247.2977","0","999","5370","0.00065494","0.00012462","0","3497002","0 SPACEBEE-106","1 48893U 21059Q   22166.91782407  .00012462  00000-0  65494-3 0  9990","2 48893  97.5574 296.6692 0010397 112.9354 247.2977 15.15781001 53708","2021-059Q","48893","6896.746","95.001","525.781","511.440","0"
"GENERATED VIA SPACETRACK.ORG API","18 SPCS","48893","SPACEBEE-106","PAYLOAD","U","21059Q","2022-06-19 13:09:53","839584","15.15850075","0.0010505","97.5577","300.2826","101.8023","258.4388","0","999","5425","0.00047568","0.00009046","0","3497010","0 SPACEBEE-106","1 48893U 21059Q   22170.54853981  .00009046  00000-0  47568-3 0  9996","2 48893  97.5577 300.2826 0010505 101.8023 258.4388 15.15850075 54252","2021-059Q","48893","6896.536","94.996","525.646","511.156","0"
"GENERATED VIA SPACETRACK.ORG API","18 SPCS","48893","SPACEBEE-106","PAYLOAD","U","21059Q","2022-06-19 21:05:10","704768","15.15856297","0.0010498","97.5576","300.6111","100.7857","259.4557","0","999","5430","0.00045672","0.00008684","0","3497669","0 SPACEBEE-106","1 48893U 21059Q   22170.87859612  .00008684  00000-0  45672-3 0  9990","2 48893  97.5576 300.6111 0010498 100.7857 259.4557 15.15856297 54303","2021-059Q","48893","6896.517","94.996","525.622","511.142","0"
"GENERATED VIA SPACETRACK.ORG API","18 SPCS","48893","SPACEBEE-106","PAYLOAD","U","21059Q","2022-06-20 12:55:44","143968","15.15867758","0.0010472","97.5574","301.2682","98.8263","261.4156","0","999","5440","0.00044197","0.00008404","0","3498071","0 SPACEBEE-106","1 48893U 21059Q   22171.53870537  .00008404  00000-0  44197-3 0  9994","2 48893  97.5574 301.2682 0010472  98.8263 261.4156 15.15867758 54404","2021-059Q","48893","6896.482","94.995","525.569","511.125","0"
"GENERATED VIA SPACETRACK.ORG API","18 SPCS","48893","SPACEBEE-106","PAYLOAD","U","21059Q","2022-06-20 19:15:57","379680","15.15872918","0.0010448","97.5573","301.531","98.0321","262.2097","0","999","5444","0.00044329","0.0000843","0","3498192","0 SPACEBEE-106","1 48893U 21059Q   22171.80274745  .00008430  00000-0  44329-3 0  9999","2 48893  97.5573 301.5310 0010448  98.0321 262.2097 15.15872918 54445","2021-059Q","48893","6896.467","94.995","525.537","511.126","0"
"GENERATED VIA SPACETRACK.ORG API","18 SPCS","48893","SPACEBEE-106","PAYLOAD","U","21059Q","2022-06-20 20:51:00","673920","15.15874237","0.0010448","97.5573","301.5967","97.8485","262.3934","0","999","5445","0.00044531","0.0000847","0","3498404","0 SPACEBEE-106","1 48893U 21059Q   22171.86875780  .00008470  00000-0  44531-3 0  9990","2 48893  97.5573 301.5967 0010448  97.8485 262.3934 15.15874237 54459","2021-059Q","48893","6896.463","94.995","525.533","511.122","0"
"GENERATED VIA SPACETRACK.ORG API","18 SPCS","48893","SPACEBEE-106","PAYLOAD","U","21059Q","2022-06-21 07:56:23","654976","15.15882151","0.0010414","97.5571","302.0566","96.4414","263.8004","0","999","5452","0.00044203","0.00008408","0","3498878","0 SPACEBEE-106","1 48893U 21059Q   22172.33082934  .00008408  00000-0  44203-3 0  9991","2 48893  97.5571 302.0566 0010414  96.4414 263.8004 15.15882151 54524","2021-059Q","48893","6896.439","94.994","525.486","511.122","0"
"GENERATED VIA SPACETRACK.ORG API","18 SPCS","48893","SPACEBEE-106","PAYLOAD","U","21059Q","2022-06-21 20:36:49","667616","15.15891183","0.0010384","97.5571","302.5822","94.8399","265.4019","0","999","5460","0.0004355","0.00008285","0","3499203","0 SPACEBEE-106","1 48893U 21059Q   22172.85890819  .00008285  00000-0  43550-3 0  9994","2 48893  97.5571 302.5822 0010384  94.8399 265.4019 15.15891183 54602","2021-059Q","48893","6896.411","94.994","525.438","511.115","0"
"GENERATED VIA SPACETRACK.ORG API","18 SPCS","48893","SPACEBEE-106","PAYLOAD","U","21059Q","2022-06-21 20:36:49","667616","15.15891183","0.0010384","97.5571","302.5822","94.8399","265.4019","0","999","5460","0.0004355","0.00008285","0","3499343","0 SPACEBEE-106","1 48893U 21059Q   22172.85890819  .00008285  00000-0  43550-3 0  9994","2 48893  97.5571 302.5822 0010384  94.8399 265.4019 15.15891183 54602","2021-059Q","48893","6896.411","94.994","525.438","511.115","0"
"GENERATED VIA SPACETRACK.ORG API","18 SPCS","48893","SPACEBEE-106","PAYLOAD","U","21059Q","2022-06-22 07:42:12","214080","15.15899376","0.001035","97.5571","303.0421","93.3996","266.842","0","999","5467","0.0004541","0.00008644","0","3499789","0 SPACEBEE-106","1 48893U 21059Q   22173.32097470  .00008644  00000-0  45410-3 0  9995","2 48893  97.5571 303.0421 0010350  93.3996 266.8420 15.15899376 54673","2021-059Q","48893","6896.386","94.993","525.389","511.114","0"
"GENERATED VIA SPACETRACK.ORG API","18 SPCS","48893","SPACEBEE-106","PAYLOAD","U","21059Q","2022-06-22 14:02:24","998784","15.15903953","0.0010338","97.5571","303.3049","92.6397","267.6019","0","999","5471","0.00046088","0.00008776","0","3500001","0 SPACEBEE-106","1 48893U 21059Q   22173.58501156  .00008776  00000-0  46088-3 0  9992","2 48893  97.5571 303.3049 0010338  92.6397 267.6019 15.15903953 54710","2021-059Q","48893","6896.373","94.993","525.367","511.108","0"
"GENERATED VIA SPACETRACK.ORG API","18 SPCS","48893","SPACEBEE-106","PAYLOAD","U","21059Q","2022-06-22 21:57:40","862592","15.15910377","0.001032","97.5571","303.6334","91.6439","268.5976","0","999","5476","0.00047313","0.00009012","0","3500106","0 SPACEBEE-106","1 48893U 21059Q   22173.91505628  .00009012  00000-0  47313-3 0  9993","2 48893  97.5571 303.6334 0010320  91.6439 268.5976 15.15910377 54762","2021-059Q","48893","6896.353","94.992","525.335","511.101","0"
"GENERATED VIA SPACETRACK.ORG API","18 SPCS","48893","SPACEBEE-106","PAYLOAD","U","21059Q","2022-06-23 07:27:59","773536","15.15917415","0.0010312","97.557","304.0276","90.4362","269.8052","0","999","5482","0.00047716","0.00009092","0","3500539","0 SPACEBEE-106","1 48893U 21059Q   22174.31110849  .00009092  00000-0  47716-3 0  9990","2 48893  97.5570 304.0276 0010312  90.4362 269.8052 15.15917415 54820","2021-059Q","48893","6896.332","94.992","525.308","511.085","0"
"GENERATED VIA SPACETRACK.ORG API","18 SPCS","48893","SPACEBEE-106","PAYLOAD","U","21059Q","2022-06-23 20:08:24","761472","15.15924387","0.0010331","97.5572","304.5531","88.8995","271.3421","0","999","5490","0.00039758","0.00007564","0","3501177","0 SPACEBEE-106","1 48893U 21059Q   22174.83917548  .00007564  00000-0  39758-3 0  9997","2 48893  97.5572 304.5531 0010331  88.8995 271.3421 15.15924387 54908","2021-059Q","48893","6896.311","94.992","525.300","511.051","0"
"GENERATED VIA SPACETRACK.ORG API","18 SPCS","48893","SPACEBEE-106","PAYLOAD","U","21059Q","2022-06-24 04:03:40","238208","15.15930082","0.001034","97.5572","304.8816","87.8536","272.388","0","999","5495","0.00040581","0.00007724","0","3500979","0 SPACEBEE-106","1 48893U 21059Q   22175.16921572  .00007724  00000-0  40581-3 0  9990","2 48893  97.5572 304.8816 0010340  87.8536 272.3880 15.15930082 54951","2021-059Q","48893","6896.293","94.991","525.289","511.028","0"
"GENERATED VIA SPACETRACK.ORG API","18 SPCS","48893","SPACEBEE-106","PAYLOAD","U","21059Q","2022-06-24 07:13:46","397280","15.15932284","0.0010331","97.5573","305.013","87.4847","272.7568","0","999","5497","0.00039977","0.00007608","0","3501501","0 SPACEBEE-106","1 48893U 21059Q   22175.30123145  .00007608  00000-0  39977-3 0  9994","2 48893  97.5573 305.0130 0010331  87.4847 272.7568 15.15932284 54970","2021-059Q","48893","6896.287","94.991","525.276","511.027","0"
"GENERATED VIA SPACETRACK.ORG API","18 SPCS","48893","SPACEBEE-106","PAYLOAD","U","21059Q","2022-06-24 21:29:14","2944","15.15939191","0.0010333","97.5576","305.6042","85.7375","274.5038","0","999","5506","0.00033046","0.00006277","0","3501798","0 SPACEBEE-106","1 48893U 21059Q   22175.89530096  .00006277  00000-0  33046-3 0  9997","2 48893  97.5576 305.6042 0010333  85.7375 274.5038 15.15939191 55067","2021-059Q","48893","6896.266","94.991","525.257","511.005","0"
